     2.10           N: GPS NAV DATA                         RINEX VERSION / TYPE
GNSS-SDR            heath                5-JUN-18 16:45     PGM / RUN BY / DATE 
GPS NAVIGATION MESSAGE FILE GENERATED BY GNSS-SDR           COMMENT             
GNSS-SDR VERSION 0.0.9                                      COMMENT             
See http://gnss-sdr.org                                     COMMENT             
     .6519D-08   .2235D-07  -.5960D-07  -.1192D-06          ION ALPHA           
     .8602D+05   .9830D+05  -.6554D+05  -.5243D+06          ION BETA            
     .931322574615D-09  .355271367880D-14   405504     1236 DELTA-UTC: A0,A1,T,W
    18                                                      LEAP SECONDS        
                                                            END OF HEADER       
30 18  6  5 18  0  0.0  .659786164761D-04 -.443378667114D-11  .000000000000D+00 
     .290000000000D+02  .120625000000D+02  .501806616545D-08 -.582939170899D+00 
     .609084963799D-06  .345332443248D-02  .659935176373D-05  .515372727966D+04 
     .237600000000D+06  .577419996262D-07  .313908707283D+00  .130385160446D-07 
     .944431301686D+00  .239625000000D+03 -.307106585868D+01 -.830463163553D-08 
    -.137148569931D-09  .100000000000D+01  .200400000000D+04  .100000000000D+01 
     .000000000000D+00  .000000000000D+00  .372529029846D-08  .290000000000D+02 
     .234138000000D+06  .400000000000D+01                                       
 1 18  6  5 18  0  0.0 -.536590814590D-04 -.318323145621D-11  .000000000000D+00 
     .630000000000D+02 -.584062500000D+02  .445125684129D-08  .165628410402D-01 
    -.302866101265D-05  .784013036173D-02  .512227416039D-05  .515366953278D+04 
     .237600000000D+06  .111758708954D-07 -.287359327073D+01  .502914190292D-07 
     .971645859922D+00  .281562500000D+03  .635311882444D+00 -.823320008869D-08 
    -.200722646618D-09  .100000000000D+01  .200400000000D+04  .100000000000D+01 
     .100000000000D+01  .000000000000D+00  .558793544769D-08  .630000000000D+02 
     .234138000000D+06  .400000000000D+01                                       
 7 18  6  5 18  0  0.0  .180172733963D-03 -.613908923697D-11  .000000000000D+00 
     .680000000000D+02  .124375000000D+02  .474234039466D-08 -.664947453068D+00 
     .856816768646D-06  .116843418218D-01  .656582415104D-05  .515365713882D+04 
     .237600000000D+06  .139698386192D-06  .280470670249D+00  .195577740669D-06 
     .958840702444D+00  .250156250000D+03 -.252770998577D+01 -.823855745470D-08 
    -.138220043134D-09  .100000000000D+01  .200400000000D+04  .100000000000D+01 
     .000000000000D+00  .000000000000D+00 -.111758708954D-07  .680000000000D+02 
     .234138000000D+06  .400000000000D+01                                       
11 18  6  5 17 59 44.0 -.734642613679D-03  .102318153949D-11  .000000000000D+00 
     .370000000000D+02 -.253750000000D+02  .614418450138D-08 -.669904521721D+00 
    -.116229057312D-05  .168678477639D-01  .390782952309D-05  .515363439941D+04 
     .237584000000D+06 -.180676579475D-06  .298221014706D+01 -.279396772385D-07 
     .905734352111D+00  .274437500000D+03  .176612787416D+01 -.928395814269D-08 
     .439304013061D-10  .100000000000D+01  .200400000000D+04  .100000000000D+01 
     .000000000000D+00  .000000000000D+00 -.121071934700D-07  .370000000000D+02 
     .234138000000D+06  .400000000000D+01                                       
28 18  6  5 18  0  0.0  .721224583685D-03  .306954461848D-11  .000000000000D+00 
     .700000000000D+02  .471562500000D+02  .388230457071D-08  .308362902025D+01 
     .234693288803D-05  .194788357476D-01  .821240246296D-05  .515368381500D+04 
     .237600000000D+06  .387430191040D-06  .139637045079D+01  .931322574615D-08 
     .985667862417D+00  .229843750000D+03 -.151934987939D+01 -.744209570744D-08 
    -.646455498895D-10  .100000000000D+01  .200400000000D+04  .100000000000D+01 
     .000000000000D+00  .000000000000D+00 -.111758708954D-07  .700000000000D+02 
     .234138000000D+06  .400000000000D+01                                       
30 18  6  5 18  0  0.0  .659786164761D-04 -.443378667114D-11  .000000000000D+00 
     .290000000000D+02  .120625000000D+02  .501806616545D-08 -.582939170899D+00 
     .609084963799D-06  .345332443248D-02  .659935176373D-05  .515372727966D+04 
     .237600000000D+06  .577419996262D-07  .313908707283D+00  .130385160446D-07 
     .944431301686D+00  .239625000000D+03 -.307106585868D+01 -.830463163553D-08 
    -.137148569931D-09  .100000000000D+01  .200400000000D+04  .100000000000D+01 
     .000000000000D+00  .000000000000D+00  .372529029846D-08  .290000000000D+02 
     .234138000000D+06  .400000000000D+01                                       
 1 18  6  5 18  0  0.0 -.536590814590D-04 -.318323145621D-11  .000000000000D+00 
     .630000000000D+02 -.584062500000D+02  .445125684129D-08  .165628410402D-01 
    -.302866101265D-05  .784013036173D-02  .512227416039D-05  .515366953278D+04 
     .237600000000D+06  .111758708954D-07 -.287359327073D+01  .502914190292D-07 
     .971645859922D+00  .281562500000D+03  .635311882444D+00 -.823320008869D-08 
    -.200722646618D-09  .100000000000D+01  .200400000000D+04  .100000000000D+01 
     .100000000000D+01  .000000000000D+00  .558793544769D-08  .630000000000D+02 
     .234168000000D+06  .400000000000D+01                                       
 7 18  6  5 18  0  0.0  .180172733963D-03 -.613908923697D-11  .000000000000D+00 
     .680000000000D+02  .124375000000D+02  .474234039466D-08 -.664947453068D+00 
     .856816768646D-06  .116843418218D-01  .656582415104D-05  .515365713882D+04 
     .237600000000D+06  .139698386192D-06  .280470670249D+00  .195577740669D-06 
     .958840702444D+00  .250156250000D+03 -.252770998577D+01 -.823855745470D-08 
    -.138220043134D-09  .100000000000D+01  .200400000000D+04  .100000000000D+01 
     .000000000000D+00  .000000000000D+00 -.111758708954D-07  .680000000000D+02 
     .234168000000D+06  .400000000000D+01                                       
11 18  6  5 17 59 44.0 -.734642613679D-03  .102318153949D-11  .000000000000D+00 
     .370000000000D+02 -.253750000000D+02  .614418450138D-08 -.669904521721D+00 
    -.116229057312D-05  .168678477639D-01  .390782952309D-05  .515363439941D+04 
     .237584000000D+06 -.180676579475D-06  .298221014706D+01 -.279396772385D-07 
     .905734352111D+00  .274437500000D+03  .176612787416D+01 -.928395814269D-08 
     .439304013061D-10  .100000000000D+01  .200400000000D+04  .100000000000D+01 
     .000000000000D+00  .000000000000D+00 -.121071934700D-07  .370000000000D+02 
     .234138000000D+06  .400000000000D+01                                       
28 18  6  5 18  0  0.0  .721224583685D-03  .306954461848D-11  .000000000000D+00 
     .700000000000D+02  .471562500000D+02  .388230457071D-08  .308362902025D+01 
     .234693288803D-05  .194788357476D-01  .821240246296D-05  .515368381500D+04 
     .237600000000D+06  .387430191040D-06  .139637045079D+01  .931322574615D-08 
     .985667862417D+00  .229843750000D+03 -.151934987939D+01 -.744209570744D-08 
    -.646455498895D-10  .100000000000D+01  .200400000000D+04  .100000000000D+01 
     .000000000000D+00  .000000000000D+00 -.111758708954D-07  .700000000000D+02 
     .234138000000D+06  .400000000000D+01                                       
30 18  6  5 18  0  0.0  .659786164761D-04 -.443378667114D-11  .000000000000D+00 
     .290000000000D+02  .120625000000D+02  .501806616545D-08 -.582939170899D+00 
     .609084963799D-06  .345332443248D-02  .659935176373D-05  .515372727966D+04 
     .237600000000D+06  .577419996262D-07  .313908707283D+00  .130385160446D-07 
     .944431301686D+00  .239625000000D+03 -.307106585868D+01 -.830463163553D-08 
    -.137148569931D-09  .100000000000D+01  .200400000000D+04  .100000000000D+01 
     .000000000000D+00  .000000000000D+00  .372529029846D-08  .290000000000D+02 
     .234168000000D+06  .400000000000D+01                                       
 1 18  6  5 18  0  0.0 -.536590814590D-04 -.318323145621D-11  .000000000000D+00 
     .630000000000D+02 -.584062500000D+02  .445125684129D-08  .165628410402D-01 
    -.302866101265D-05  .784013036173D-02  .512227416039D-05  .515366953278D+04 
     .237600000000D+06  .111758708954D-07 -.287359327073D+01  .502914190292D-07 
     .971645859922D+00  .281562500000D+03  .635311882444D+00 -.823320008869D-08 
    -.200722646618D-09  .100000000000D+01  .200400000000D+04  .100000000000D+01 
     .100000000000D+01  .000000000000D+00  .558793544769D-08  .630000000000D+02 
     .234168000000D+06  .400000000000D+01                                       
 7 18  6  5 18  0  0.0  .180172733963D-03 -.613908923697D-11  .000000000000D+00 
     .680000000000D+02  .124375000000D+02  .474234039466D-08 -.664947453068D+00 
     .856816768646D-06  .116843418218D-01  .656582415104D-05  .515365713882D+04 
     .237600000000D+06  .139698386192D-06  .280470670249D+00  .195577740669D-06 
     .958840702444D+00  .250156250000D+03 -.252770998577D+01 -.823855745470D-08 
    -.138220043134D-09  .100000000000D+01  .200400000000D+04  .100000000000D+01 
     .000000000000D+00  .000000000000D+00 -.111758708954D-07  .680000000000D+02 
     .234168000000D+06  .400000000000D+01                                       
11 18  6  5 17 59 44.0 -.734642613679D-03  .102318153949D-11  .000000000000D+00 
     .370000000000D+02 -.253750000000D+02  .614418450138D-08 -.669904521721D+00 
    -.116229057312D-05  .168678477639D-01  .390782952309D-05  .515363439941D+04 
     .237584000000D+06 -.180676579475D-06  .298221014706D+01 -.279396772385D-07 
     .905734352111D+00  .274437500000D+03  .176612787416D+01 -.928395814269D-08 
     .439304013061D-10  .100000000000D+01  .200400000000D+04  .100000000000D+01 
     .000000000000D+00  .000000000000D+00 -.121071934700D-07  .370000000000D+02 
     .234138000000D+06  .400000000000D+01                                       
